0 THORAD AGENA D DEB
1 05635U 69082JF  13283.51608919  .00001162  00000-0  49598-3 0  3509
2 05635 069.9539 321.6941 0004943 333.1964 098.7436 14.27517125204588
0 THORAD AGENA D DEB
1 05635U 69082JF  13286.46749773  .00001306  00000-0  55442-3 0  3527
2 05635 069.9534 315.0325 0005148 330.5231 144.8885 14.27522451205009
0 THORAD AGENA D DEB
1 05635U 69082JF  13288.14789740  .00001926  00000-0  80625-3 0  3532
2 05635 069.9533 311.2396 0005259 329.0542 139.7850 14.27530334205245
0 THORAD AGENA D DEB
1 05635U 69082JF  13289.19081412  .00001574  00000-0  66307-3 0  3540
2 05635 069.9533 308.8853 0005371 328.2285 098.8501 14.27535250205391
0 THORAD AGENA D DEB
1 05635U 69082JF  13290.45266441  .00001597  00000-0  67215-3 0  3553
2 05635 069.9534 306.0368 0005474 327.2418 102.9271 14.27538839205571
0 THORAD AGENA D DEB
1 05635U 69082JF  13291.50441039  .00001659  00000-0  69733-3 0  3565
2 05635 069.9534 303.6627 0005583 326.5693 107.2413 14.27541477205725
0 THORAD AGENA D DEB
1 05635U 69082JF  13293.40403730  .00002048  00000-0  85534-3 0  3573
2 05635 069.9534 299.3743 0005650 325.0671 148.6432 14.27547035205995
0 THORAD AGENA D DEB
1 05635U 69082JF  13294.46244789  .00002058  00000-0  85929-3 0  3587
2 05635 069.9534 296.9852 0005695 324.3064 187.3178 14.27552092206140
0 THORAD AGENA D DEB
1 05635U 69082JF  13295.77418617  .00002209  00000-0  92036-3 0  3591
2 05635 069.9534 294.0242 0005782 323.4952 087.6165 14.27557650206339
